STARLINK-35790          
1 67055U 25294AB  25351.83335648 -.01420154  60299-3 -31751-2 0  9998
2 67055  43.0000 151.2252 0001726 279.7443 158.8001 15.96946171  2129
STARLINK-36143          
1 67056U 25294AC  25351.83335648 -.01436678  61751-3 -31688-2 0  9990
2 67056  43.0000 151.2146 0001613 277.5348 165.1450 15.97193848  2122
STARLINK-36141          
1 67057U 25294AD  25351.83335648 -.01424736  60756-3 -31578-2 0  9995
2 67057  43.0000 151.2187 0001695 278.4975 162.7217 15.97103667  2128
STARLINK-35767          
1 67058U 25294AE  25351.91668981 -.01412592  59618-3 -31847-2 0  9995
2 67058  43.0002 150.6991 0001685 275.5383 284.0591 15.96793341  2134
HULIANWANG DIGUI-119    
1 67059U 25295A   25351.46978994 -.00000182  00000+0 -90034-5 0  9995
2 67059  50.0070 352.2731 0013896 264.5159  95.4170 14.25569756   795
HULIANWANG DIGUI-120    
1 67060U 25295B   25349.71694909  .00000000  00000+0  66896-4 0  9998
2 67060  50.0050 359.6709 0013223 257.2650 102.6786 14.25706335   543
HULIANWANG DIGUI-121    
1 67061U 25295C   25349.71692468 -.00000001  00000+0  66638-4 0  9993
2 67061  50.0012 359.6606 0013268 256.3366 103.6071 14.25729079   549
HULIANWANG DIGUI-122    
1 67062U 25295D   25352.59053472  .00000174  00000+0  13957-3 0  9995
2 67062  50.0054 347.5334 0013160 273.8482  86.0927 14.25754659   955
HULIANWANG DIGUI-123    
1 67063U 25295E   25352.58992245  .00000182  00000+0  14282-3 0  9996
2 67063  50.0061 347.5326 0012477 273.0081  86.9405 14.25887512   957
HULIANWANG DIGUI-124    
1 67064U 25295F   25352.02899511 -.00000676  00000+0 -21482-3 0  9998
2 67064  50.0037 349.8867 0012069 265.6344  94.3191 14.25947801   876
HULIANWANG DIGUI-125    
1 67065U 25295G   25352.58962214  .00000170  00000+0  13732-3 0  9997
2 67065  50.0011 347.5165 0012275 273.6220  86.3290 14.25953200   956
HULIANWANG DIGUI-126    
1 67066U 25295H   25352.51887080  .00000170  00000+0  13725-3 0  9990
2 67066  50.0014 347.8083 0011435 270.5258  89.4345 14.26096110   949
