CCSDS_OMM_VERS = 2.0
CREATION_DATE  = 
ORIGINATOR     = 

OBJECT_NAME    = STARLINK-35790
OBJECT_ID      = 2025-294AB
CENTER_NAME    = EARTH
REF_FRAME      = TEME
TIME_SYSTEM    = UTC
MEAN_ELEMENT_THEORY = SGP/SGP4

EPOCH          = 2025-12-17T20:00:01.999872
MEAN_MOTION    = 15.96946171
ECCENTRICITY   = .00017268
INCLINATION    = 43.0000
RA_OF_ASC_NODE = 151.2252
ARG_OF_PERICENTER = 279.7443
MEAN_ANOMALY   = 158.8001

EPHEMERIS_TYPE = 0
CLASSIFICATION_TYPE = U
NORAD_CAT_ID   = 67055
ELEMENT_SET_NO = 999
REV_AT_EPOCH   = 212
BSTAR          = -.31750688E-2
MEAN_MOTION_DOT = -.1420154E-1
MEAN_MOTION_DDOT = .60299332E-3

CCSDS_OMM_VERS = 2.0
CREATION_DATE  = 
ORIGINATOR     = 

OBJECT_NAME    = STARLINK-36143
OBJECT_ID      = 2025-294AC
CENTER_NAME    = EARTH
REF_FRAME      = TEME
TIME_SYSTEM    = UTC
MEAN_ELEMENT_THEORY = SGP/SGP4

EPOCH          = 2025-12-17T20:00:01.999872
MEAN_MOTION    = 15.97193848
ECCENTRICITY   = .00016135
INCLINATION    = 43.0000
RA_OF_ASC_NODE = 151.2146
ARG_OF_PERICENTER = 277.5348
MEAN_ANOMALY   = 165.1450

EPHEMERIS_TYPE = 0
CLASSIFICATION_TYPE = U
NORAD_CAT_ID   = 67056
ELEMENT_SET_NO = 999
REV_AT_EPOCH   = 212
BSTAR          = -.31688352E-2
MEAN_MOTION_DOT = -.1436678E-1
MEAN_MOTION_DDOT = .61750931E-3

CCSDS_OMM_VERS = 2.0
CREATION_DATE  = 
ORIGINATOR     = 

OBJECT_NAME    = STARLINK-36141
OBJECT_ID      = 2025-294AD
CENTER_NAME    = EARTH
REF_FRAME      = TEME
TIME_SYSTEM    = UTC
MEAN_ELEMENT_THEORY = SGP/SGP4

EPOCH          = 2025-12-17T20:00:01.999872
MEAN_MOTION    = 15.97103667
ECCENTRICITY   = .0001695
INCLINATION    = 43.0000
RA_OF_ASC_NODE = 151.2187
ARG_OF_PERICENTER = 278.4975
MEAN_ANOMALY   = 162.7217

EPHEMERIS_TYPE = 0
CLASSIFICATION_TYPE = U
NORAD_CAT_ID   = 67057
ELEMENT_SET_NO = 999
REV_AT_EPOCH   = 212
BSTAR          = -.31578497E-2
MEAN_MOTION_DOT = -.1424736E-1
MEAN_MOTION_DDOT = .60755526E-3

CCSDS_OMM_VERS = 2.0
CREATION_DATE  = 
ORIGINATOR     = 

OBJECT_NAME    = STARLINK-35767
OBJECT_ID      = 2025-294AE
CENTER_NAME    = EARTH
REF_FRAME      = TEME
TIME_SYSTEM    = UTC
MEAN_ELEMENT_THEORY = SGP/SGP4

EPOCH          = 2025-12-17T22:00:01.999584
MEAN_MOTION    = 15.96793341
ECCENTRICITY   = .00016857
INCLINATION    = 43.0002
RA_OF_ASC_NODE = 150.6991
ARG_OF_PERICENTER = 275.5383
MEAN_ANOMALY   = 284.0591

EPHEMERIS_TYPE = 0
CLASSIFICATION_TYPE = U
NORAD_CAT_ID   = 67058
ELEMENT_SET_NO = 999
REV_AT_EPOCH   = 213
BSTAR          = -.3184717E-2
MEAN_MOTION_DOT = -.1412592E-1
MEAN_MOTION_DDOT = .59617782E-3

CCSDS_OMM_VERS = 2.0
CREATION_DATE  = 
ORIGINATOR     = 

OBJECT_NAME    = HULIANWANG DIGUI-119
OBJECT_ID      = 2025-295A
CENTER_NAME    = EARTH
REF_FRAME      = TEME
TIME_SYSTEM    = UTC
MEAN_ELEMENT_THEORY = SGP/SGP4

EPOCH          = 2025-12-17T11:16:29.850816
MEAN_MOTION    = 14.25569756
ECCENTRICITY   = .00138963
INCLINATION    = 50.0070
RA_OF_ASC_NODE = 352.2731
ARG_OF_PERICENTER = 264.5159
MEAN_ANOMALY   = 95.4170

EPHEMERIS_TYPE = 0
CLASSIFICATION_TYPE = U
NORAD_CAT_ID   = 67059
ELEMENT_SET_NO = 999
REV_AT_EPOCH   = 79
BSTAR          = -.9003402E-5
MEAN_MOTION_DOT = -.182E-5
MEAN_MOTION_DDOT = 0

CCSDS_OMM_VERS = 2.0
CREATION_DATE  = 
ORIGINATOR     = 

OBJECT_NAME    = HULIANWANG DIGUI-120
OBJECT_ID      = 2025-295B
CENTER_NAME    = EARTH
REF_FRAME      = TEME
TIME_SYSTEM    = UTC
MEAN_ELEMENT_THEORY = SGP/SGP4

EPOCH          = 2025-12-15T17:12:24.401376
MEAN_MOTION    = 14.25706335
ECCENTRICITY   = .00132237
INCLINATION    = 50.0050
RA_OF_ASC_NODE = 359.6709
ARG_OF_PERICENTER = 257.2650
MEAN_ANOMALY   = 102.6786

EPHEMERIS_TYPE = 0
CLASSIFICATION_TYPE = U
NORAD_CAT_ID   = 67060
ELEMENT_SET_NO = 999
REV_AT_EPOCH   = 54
BSTAR          = .66896441E-4
MEAN_MOTION_DOT = 0
MEAN_MOTION_DDOT = 0

CCSDS_OMM_VERS = 2.0
CREATION_DATE  = 
ORIGINATOR     = 

OBJECT_NAME    = HULIANWANG DIGUI-121
OBJECT_ID      = 2025-295C
CENTER_NAME    = EARTH
REF_FRAME      = TEME
TIME_SYSTEM    = UTC
MEAN_ELEMENT_THEORY = SGP/SGP4

EPOCH          = 2025-12-15T17:12:22.292352
MEAN_MOTION    = 14.25729079
ECCENTRICITY   = .00132682
INCLINATION    = 50.0012
RA_OF_ASC_NODE = 359.6606
ARG_OF_PERICENTER = 256.3366
MEAN_ANOMALY   = 103.6071

EPHEMERIS_TYPE = 0
CLASSIFICATION_TYPE = U
NORAD_CAT_ID   = 67061
ELEMENT_SET_NO = 999
REV_AT_EPOCH   = 54
BSTAR          = .66638352E-4
MEAN_MOTION_DOT = -.1E-7
MEAN_MOTION_DDOT = 0

CCSDS_OMM_VERS = 2.0
CREATION_DATE  = 
ORIGINATOR     = 

OBJECT_NAME    = HULIANWANG DIGUI-122
OBJECT_ID      = 2025-295D
CENTER_NAME    = EARTH
REF_FRAME      = TEME
TIME_SYSTEM    = UTC
MEAN_ELEMENT_THEORY = SGP/SGP4

EPOCH          = 2025-12-18T14:10:22.199808
MEAN_MOTION    = 14.25754659
ECCENTRICITY   = .00131605
INCLINATION    = 50.0054
RA_OF_ASC_NODE = 347.5334
ARG_OF_PERICENTER = 273.8482
MEAN_ANOMALY   = 86.0927

EPHEMERIS_TYPE = 0
CLASSIFICATION_TYPE = U
NORAD_CAT_ID   = 67062
ELEMENT_SET_NO = 999
REV_AT_EPOCH   = 95
BSTAR          = .13957009E-3
MEAN_MOTION_DOT = .174E-5
MEAN_MOTION_DDOT = 0

CCSDS_OMM_VERS = 2.0
CREATION_DATE  = 
ORIGINATOR     = 

OBJECT_NAME    = HULIANWANG DIGUI-123
OBJECT_ID      = 2025-295E
CENTER_NAME    = EARTH
REF_FRAME      = TEME
TIME_SYSTEM    = UTC
MEAN_ELEMENT_THEORY = SGP/SGP4

EPOCH          = 2025-12-18T14:09:29.299680
MEAN_MOTION    = 14.25887512
ECCENTRICITY   = .00124772
INCLINATION    = 50.0061
RA_OF_ASC_NODE = 347.5326
ARG_OF_PERICENTER = 273.0081
MEAN_ANOMALY   = 86.9405

EPHEMERIS_TYPE = 0
CLASSIFICATION_TYPE = U
NORAD_CAT_ID   = 67063
ELEMENT_SET_NO = 999
REV_AT_EPOCH   = 95
BSTAR          = .14281941E-3
MEAN_MOTION_DOT = .182E-5
MEAN_MOTION_DDOT = 0

CCSDS_OMM_VERS = 2.0
CREATION_DATE  = 
ORIGINATOR     = 

OBJECT_NAME    = HULIANWANG DIGUI-124
OBJECT_ID      = 2025-295F
CENTER_NAME    = EARTH
REF_FRAME      = TEME
TIME_SYSTEM    = UTC
MEAN_ELEMENT_THEORY = SGP/SGP4

EPOCH          = 2025-12-18T00:41:45.177504
MEAN_MOTION    = 14.25947801
ECCENTRICITY   = .0012069
INCLINATION    = 50.0037
RA_OF_ASC_NODE = 349.8867
ARG_OF_PERICENTER = 265.6344
MEAN_ANOMALY   = 94.3191

EPHEMERIS_TYPE = 0
CLASSIFICATION_TYPE = U
NORAD_CAT_ID   = 67064
ELEMENT_SET_NO = 999
REV_AT_EPOCH   = 87
BSTAR          = -.21481981E-3
MEAN_MOTION_DOT = -.676E-5
MEAN_MOTION_DDOT = 0

CCSDS_OMM_VERS = 2.0
CREATION_DATE  = 
ORIGINATOR     = 

OBJECT_NAME    = HULIANWANG DIGUI-125
OBJECT_ID      = 2025-295G
CENTER_NAME    = EARTH
REF_FRAME      = TEME
TIME_SYSTEM    = UTC
MEAN_ELEMENT_THEORY = SGP/SGP4

EPOCH          = 2025-12-18T14:09:03.352896
MEAN_MOTION    = 14.25953200
ECCENTRICITY   = .00122754
INCLINATION    = 50.0011
RA_OF_ASC_NODE = 347.5165
ARG_OF_PERICENTER = 273.6220
MEAN_ANOMALY   = 86.3290

EPHEMERIS_TYPE = 0
CLASSIFICATION_TYPE = U
NORAD_CAT_ID   = 67065
ELEMENT_SET_NO = 999
REV_AT_EPOCH   = 95
BSTAR          = .13732393E-3
MEAN_MOTION_DOT = .17E-5
MEAN_MOTION_DDOT = 0

CCSDS_OMM_VERS = 2.0
CREATION_DATE  = 
ORIGINATOR     = 

OBJECT_NAME    = HULIANWANG DIGUI-126
OBJECT_ID      = 2025-295H
CENTER_NAME    = EARTH
REF_FRAME      = TEME
TIME_SYSTEM    = UTC
MEAN_ELEMENT_THEORY = SGP/SGP4

EPOCH          = 2025-12-18T12:27:10.437120
MEAN_MOTION    = 14.26096110
ECCENTRICITY   = .00114355
INCLINATION    = 50.0014
RA_OF_ASC_NODE = 347.8083
ARG_OF_PERICENTER = 270.5258
MEAN_ANOMALY   = 89.4345

EPHEMERIS_TYPE = 0
CLASSIFICATION_TYPE = U
NORAD_CAT_ID   = 67066
ELEMENT_SET_NO = 999
REV_AT_EPOCH   = 94
BSTAR          = .13725303E-3
MEAN_MOTION_DOT = .17E-5
MEAN_MOTION_DDOT = 0

